[
    {
        "Altitude(m)": 607895.7891389652,
        "Argument of Periapsis(deg)": 0.0,
        "Eccentricity": 0.0,
        "Inclination(deg)": 60.0,
        "Latitude(deg)": 40.99826308418018,
        "Longitude(deg)": -44.911407456491226,
        "Mean Anomaly(deg)": -229.09089999999998,
        "RAAN(deg)": 265.0,
        "Satellite Name": "Test1 1174",
        "Satellite Number": 1174,
        "Semi-Major Axis(m)": 6980739.136638005,
        "Time(s)": 0
    },
    {
        "Altitude(m)": 607795.1022489503,
        "Argument of Periapsis(deg)": 0.00010418945913296404,
        "Eccentricity": 0.0,
        "Inclination(deg)": 60.0,
        "Latitude(deg)": 40.5305878709675,
        "Longitude(deg)": -44.41481331425537,
        "Mean Anomaly(deg)": -228.4707938545382,
        "RAAN(deg)": 264.99957995086027,
        "Satellite Name": "Test1 1174",
        "Satellite Number": 1174,
        "Semi-Major Axis(m)": 6980739.136638005,
        "Time(s)": 10
    }
]